start=new Date('2023-01-16T00:00:00.000Z').valueOf();
sats=[{"BSTAR":"-0.02303900000000","RA_OF_ASC_NODE":"163.6911","TLE_LINE1":"1 54761U 22175D   23015.91668981 -.01191784  00000-0 -23039-1 0  9990","SITE":"AFETR","MEAN_ELEMENT_THEORY":"SGP4","CENTER_NAME":"EARTH","MEAN_ANOMALY":"69.1970","NORAD_CAT_ID":"54761","REV_AT_EPOCH":"130","RCS_SIZE":"LARGE","APOAPSIS":"417.792","EPOCH":"2023-01-15T22:00:01.999584","OBJECT_ID":"2022-175D","FILE":"3748322","TIME_SYSTEM":"UTC","GP_ID":"223152165","INCLINATION":"53.2139","PERIAPSIS":"416.417","REF_FRAME":"TEME","COUNTRY_CODE":"US","SEMIMAJOR_AXIS":"6795.240","PERIOD":"92.911","ELEMENT_SET_NO":"999","MEAN_MOTION":"15.49871168","MEAN_MOTION_DDOT":"0.0000000000000","OBJECT_TYPE":"PAYLOAD","ECCENTRICITY":"0.00010120","OBJECT_NAME":"STARLINK-5202","LAUNCH_DATE":"2022-12-17","ARG_OF_PERICENTER":"62.8686","MEAN_MOTION_DOT":"-0.01191784","DECAY_DATE":null,"TLE_LINE2":"2 54761  53.2139 163.6911 0001012  62.8686  69.1970 15.49871168  1301","EPHEMERIS_TYPE":"0","CLASSIFICATION_TYPE":"U"},{"RCS_SIZE":"LARGE","REV_AT_EPOCH":"130","NORAD_CAT_ID":"54762","MEAN_ANOMALY":"57.1912","CENTER_NAME":"EARTH","MEAN_ELEMENT_THEORY":"SGP4","RA_OF_ASC_NODE":"163.6788","TLE_LINE1":"1 54762U 22175E   23015.91668981 -.00274189  00000-0 -49772-2 0  9994","SITE":"AFETR","BSTAR":"-0.00497720000000","PERIAPSIS":"415.831","INCLINATION":"53.2143","GP_ID":"223152406","TIME_SYSTEM":"UTC","FILE":"3748322","APOAPSIS":"417.749","OBJECT_ID":"2022-175E","EPOCH":"2023-01-15T22:00:01.999584","ECCENTRICITY":"0.00014110","OBJECT_TYPE":"PAYLOAD","MEAN_MOTION_DDOT":"0.0000000000000","MEAN_MOTION":"15.49978799","ELEMENT_SET_NO":"999","SEMIMAJOR_AXIS":"6794.925","COUNTRY_CODE":"US","PERIOD":"92.904","REF_FRAME":"TEME","CLASSIFICATION_TYPE":"U","EPHEMERIS_TYPE":"0","TLE_LINE2":"2 54762  53.2143 163.6788 0001411  80.8213  57.1912 15.49978799  1309","DECAY_DATE":null,"ARG_OF_PERICENTER":"80.8213","MEAN_MOTION_DOT":"-0.00274189","LAUNCH_DATE":"2022-12-17","OBJECT_NAME":"STARLINK-5214"},{"RCS_SIZE":"LARGE","MEAN_ANOMALY":"61.5329","NORAD_CAT_ID":"54763","REV_AT_EPOCH":"130","TLE_LINE1":"1 54763U 22175F   23015.91668981 -.00643040  00000-0 -12193-1 0  9997","RA_OF_ASC_NODE":"163.6835","SITE":"AFETR","MEAN_ELEMENT_THEORY":"SGP4","CENTER_NAME":"EARTH","BSTAR":"-0.01219300000000","INCLINATION":"53.2140","PERIAPSIS":"415.666","TIME_SYSTEM":"UTC","GP_ID":"223151198","FILE":"3748322","EPOCH":"2023-01-15T22:00:01.999584","APOAPSIS":"417.261","OBJECT_ID":"2022-175F","OBJECT_TYPE":"PAYLOAD","MEAN_MOTION_DDOT":"0.0000000000000","ECCENTRICITY":"0.00011740","ELEMENT_SET_NO":"999","MEAN_MOTION":"15.50090478","PERIOD":"92.898","COUNTRY_CODE":"US","SEMIMAJOR_AXIS":"6794.599","REF_FRAME":"TEME","EPHEMERIS_TYPE":"0","CLASSIFICATION_TYPE":"U","TLE_LINE2":"2 54763  53.2140 163.6835 0001174  74.6672  61.5329 15.50090478  1308","ARG_OF_PERICENTER":"74.6672","MEAN_MOTION_DOT":"-0.00643040","DECAY_DATE":null,"OBJECT_NAME":"STARLINK-5191","LAUNCH_DATE":"2022-12-17"},{"FILE":"3748322","EPOCH":"2023-01-15T22:00:01.999584","APOAPSIS":"417.896","OBJECT_ID":"2022-175G","INCLINATION":"53.2142","PERIAPSIS":"416.378","TIME_SYSTEM":"UTC","GP_ID":"223151441","RA_OF_ASC_NODE":"163.6715","TLE_LINE1":"1 54764U 22175G   23015.91668981  .00027874  00000-0  49774-3 0  9994","SITE":"AFETR","MEAN_ELEMENT_THEORY":"SGP4","CENTER_NAME":"EARTH","BSTAR":"0.00049774000000","RCS_SIZE":"LARGE","MEAN_ANOMALY":"65.6407","NORAD_CAT_ID":"54764","REV_AT_EPOCH":"130","MEAN_MOTION_DOT":"0.00027874","ARG_OF_PERICENTER":"76.0702","DECAY_DATE":null,"OBJECT_NAME":"STARLINK-5458","LAUNCH_DATE":"2022-12-17","EPHEMERIS_TYPE":"0","CLASSIFICATION_TYPE":"U","TLE_LINE2":"2 54764  53.2142 163.6715 0001117  76.0702  65.6407 15.49860175  1304","COUNTRY_CODE":"US","SEMIMAJOR_AXIS":"6795.272","PERIOD":"92.912","REF_FRAME":"TEME","MEAN_MOTION_DDOT":"0.0000000000000","OBJECT_TYPE":"PAYLOAD","ECCENTRICITY":"0.00011170","ELEMENT_SET_NO":"999","MEAN_MOTION":"15.49860175"},{"ECCENTRICITY":"0.00013630","OBJECT_TYPE":"PAYLOAD","MEAN_MOTION_DDOT":"0.0000000000000","MEAN_MOTION":"15.49945518","ELEMENT_SET_NO":"999","SEMIMAJOR_AXIS":"6795.022","COUNTRY_CODE":"US","PERIOD":"92.906","REF_FRAME":"TEME","CLASSIFICATION_TYPE":"U","EPHEMERIS_TYPE":"0","TLE_LINE2":"2 54765  53.2142 163.6751 0001363  67.1490  72.6558 15.49945518  1303","DECAY_DATE":null,"ARG_OF_PERICENTER":"67.1490","MEAN_MOTION_DOT":"-0.00188040","LAUNCH_DATE":"2022-12-17","OBJECT_NAME":"STARLINK-5466","RCS_SIZE":"LARGE","REV_AT_EPOCH":"130","NORAD_CAT_ID":"54765","MEAN_ANOMALY":"72.6558","CENTER_NAME":"EARTH","MEAN_ELEMENT_THEORY":"SGP4","SITE":"AFETR","TLE_LINE1":"1 54765U 22175H   23015.91668981 -.00188040  00000-0 -33779-2 0  9997","RA_OF_ASC_NODE":"163.6751","BSTAR":"-0.00337790000000","PERIAPSIS":"415.961","INCLINATION":"53.2142","GP_ID":"223151684","TIME_SYSTEM":"UTC","FILE":"3748322","OBJECT_ID":"2022-175H","APOAPSIS":"417.813","EPOCH":"2023-01-15T22:00:01.999584"},{"MEAN_MOTION_DDOT":"0.0000000000000","OBJECT_TYPE":"PAYLOAD","ECCENTRICITY":"0.00012730","MEAN_MOTION":"15.49864594","ELEMENT_SET_NO":"999","COUNTRY_CODE":"US","SEMIMAJOR_AXIS":"6795.259","PERIOD":"92.911","REF_FRAME":"TEME","CLASSIFICATION_TYPE":"U","EPHEMERIS_TYPE":"0","TLE_LINE2":"2 54766  53.2143 163.6643 0001273  74.9361  70.4098 15.49864594  1307","DECAY_DATE":null,"ARG_OF_PERICENTER":"74.9361","MEAN_MOTION_DOT":"0.00046590","OBJECT_NAME":"STARLINK-5471","LAUNCH_DATE":"2022-12-17","RCS_SIZE":"LARGE","REV_AT_EPOCH":"130","MEAN_ANOMALY":"70.4098","NORAD_CAT_ID":"54766","MEAN_ELEMENT_THEORY":"SGP4","CENTER_NAME":"EARTH","SITE":"AFETR","TLE_LINE1":"1 54766U 22175J   23015.91668981  .00046590  00000-0  82453-3 0  9993","RA_OF_ASC_NODE":"163.6643","BSTAR":"0.00082453000000","INCLINATION":"53.2143","PERIAPSIS":"416.259","GP_ID":"223151924","TIME_SYSTEM":"UTC","FILE":"3748322","EPOCH":"2023-01-15T22:00:01.999584","APOAPSIS":"417.989","OBJECT_ID":"2022-175J"},{"FILE":"3748322","EPOCH":"2023-01-15T22:00:01.999584","APOAPSIS":"417.806","OBJECT_ID":"2022-175K","INCLINATION":"53.2139","PERIAPSIS":"416.458","TIME_SYSTEM":"UTC","GP_ID":"223150713","RA_OF_ASC_NODE":"163.6617","TLE_LINE1":"1 54767U 22175K   23015.91668981  .00051851  00000-0  91622-3 0  9998","SITE":"AFETR","MEAN_ELEMENT_THEORY":"SGP4","CENTER_NAME":"EARTH","BSTAR":"0.00091622000000","RCS_SIZE":"LARGE","MEAN_ANOMALY":"73.0019","NORAD_CAT_ID":"54767","REV_AT_EPOCH":"130","MEAN_MOTION_DOT":"0.00051851","ARG_OF_PERICENTER":"74.0755","DECAY_DATE":null,"OBJECT_NAME":"STARLINK-5472","LAUNCH_DATE":"2022-12-17","EPHEMERIS_TYPE":"0","CLASSIFICATION_TYPE":"U","TLE_LINE2":"2 54767  53.2139 163.6617 0000992  74.0755  73.0019 15.49861714  1302","COUNTRY_CODE":"US","PERIOD":"92.912","SEMIMAJOR_AXIS":"6795.267","REF_FRAME":"TEME","MEAN_MOTION_DDOT":"0.0000000000000","OBJECT_TYPE":"PAYLOAD","ECCENTRICITY":"0.00009920","ELEMENT_SET_NO":"999","MEAN_MOTION":"15.49861714"},{"BSTAR":"0.00021358000000","SITE":"AFETR","TLE_LINE1":"1 54768U 22175L   23015.69267026  .00029518  00000-0  21358-3 0  9993","RA_OF_ASC_NODE":"163.2312","CENTER_NAME":"EARTH","MEAN_ELEMENT_THEORY":"SGP4","NORAD_CAT_ID":"54768","MEAN_ANOMALY":"282.7459","REV_AT_EPOCH":"644","RCS_SIZE":"LARGE","APOAPSIS":"350.096","OBJECT_ID":"2022-175L","EPOCH":"2023-01-15T16:37:26.710464","FILE":"3748322","TIME_SYSTEM":"UTC","GP_ID":"223150955","PERIAPSIS":"349.165","INCLINATION":"53.2146","REF_FRAME":"TEME","COUNTRY_CODE":"US","SEMIMAJOR_AXIS":"6727.766","PERIOD":"91.531","ELEMENT_SET_NO":"999","MEAN_MOTION":"15.73245417","ECCENTRICITY":"0.00006920","MEAN_MOTION_DDOT":"0.0000000000000","OBJECT_TYPE":"PAYLOAD","LAUNCH_DATE":"2022-12-17","OBJECT_NAME":"STARLINK-5444","ARG_OF_PERICENTER":"77.3638","MEAN_MOTION_DOT":"0.00029518","DECAY_DATE":null,"TLE_LINE2":"2 54768  53.2146 163.2312 0000692  77.3638 282.7459 15.73245417  6442","EPHEMERIS_TYPE":"0","CLASSIFICATION_TYPE":"U"},{"EPHEMERIS_TYPE":"0","CLASSIFICATION_TYPE":"U","TLE_LINE2":"2 54769  53.2136 163.6699 0000748  66.9945  76.4484 15.49848409  1300","MEAN_MOTION_DOT":"0.00057390","ARG_OF_PERICENTER":"66.9945","DECAY_DATE":null,"OBJECT_NAME":"STARLINK-5404","LAUNCH_DATE":"2022-12-17","MEAN_MOTION_DDOT":"0.0000000000000","OBJECT_TYPE":"PAYLOAD","ECCENTRICITY":"0.00007480","ELEMENT_SET_NO":"999","MEAN_MOTION":"15.49848409","SEMIMAJOR_AXIS":"6795.306","COUNTRY_CODE":"US","PERIOD":"92.912","REF_FRAME":"TEME","INCLINATION":"53.2136","PERIAPSIS":"416.663","TIME_SYSTEM":"UTC","GP_ID":"223152166","FILE":"3748322","EPOCH":"2023-01-15T22:00:01.999584","APOAPSIS":"417.679","OBJECT_ID":"2022-175M","RCS_SIZE":"LARGE","MEAN_ANOMALY":"76.4484","NORAD_CAT_ID":"54769","REV_AT_EPOCH":"130","RA_OF_ASC_NODE":"163.6699","TLE_LINE1":"1 54769U 22175M   23015.91668981  .00057390  00000-0  10130-2 0  9998","SITE":"AFETR","MEAN_ELEMENT_THEORY":"SGP4","CENTER_NAME":"EARTH","BSTAR":"0.00101300000000"},{"APOAPSIS":"350.308","OBJECT_ID":"2022-175N","EPOCH":"2023-01-15T16:37:08.426496","FILE":"3748322","TIME_SYSTEM":"UTC","GP_ID":"223152407","PERIAPSIS":"348.984","INCLINATION":"53.2137","BSTAR":"0.00014474000000","TLE_LINE1":"1 54770U 22175N   23015.69245864  .00019776  00000-0  14474-3 0  9998","RA_OF_ASC_NODE":"163.2294","SITE":"AFETR","CENTER_NAME":"EARTH","MEAN_ELEMENT_THEORY":"SGP4","NORAD_CAT_ID":"54770","MEAN_ANOMALY":"281.8803","REV_AT_EPOCH":"644","RCS_SIZE":"LARGE","LAUNCH_DATE":"2022-12-17","OBJECT_NAME":"STARLINK-5448","MEAN_MOTION_DOT":"0.00019776","ARG_OF_PERICENTER":"78.2328","DECAY_DATE":null,"TLE_LINE2":"2 54770  53.2137 163.2294 0000984  78.2328 281.8803 15.73240010  6441","EPHEMERIS_TYPE":"0","CLASSIFICATION_TYPE":"U","REF_FRAME":"TEME","COUNTRY_CODE":"US","PERIOD":"91.531","SEMIMAJOR_AXIS":"6727.781","ELEMENT_SET_NO":"999","MEAN_MOTION":"15.73240010","ECCENTRICITY":"0.00009840","MEAN_MOTION_DDOT":"0.0000000000000","OBJECT_TYPE":"PAYLOAD"}];
